{"type": "FeatureCollection", "features": [ {"type": "Feature", "properties": {"norad_id": 52912, "name": "GAOFEN-12 03", "group": "resource", "lat": -4.609857091560252, "lon": -115.86293600805533, "alt_km": 633.3232473674188, "timestamp": "2025-12-22T08:58:20.001173+00:00", "meta": {"OBJECT_NAME": "GAOFEN-12 03", "OBJECT_ID": "2022-069A", "EPOCH": "2025-12-22T04:07:26.910336", "MEAN_MOTION": 14.79628443, "ECCENTRICITY": 0.000191, "INCLINATION": 97.8486, "RA_OF_ASC_NODE": 243.3025, "ARG_OF_PERICENTER": 50.6881, "MEAN_ANOMALY": 309.45, "EPHEMERIS_TYPE": 0, "CLASSIFICATION_TYPE": "U", "NORAD_CAT_ID": 52912, "ELEMENT_SET_NO": 999, "REV_AT_EPOCH": 18843, "BSTAR": 0.00010865, "MEAN_MOTION_DOT": 7.64e-06, "MEAN_MOTION_DDOT": 0}, "tle": {"line1": "1 52912U 22069A   25356.17183924  .00000764  00000+0  10865-3 0  9993", "line2": "2 52912  97.8486 243.3025 0001910  50.6881 309.4500 14.79628443188434"}}, "geometry": {"type": "Point", "coordinates": [-115.86293600805533, -4.609857091560252]}}, {"type": "Feature", "properties": {"norad_id": 54754, "name": "SWOT", "group": "resource", "lat": 71.83862877292793, "lon": 51.91437054028389, "alt_km": 885.8675407911524, "timestamp": "2025-12-22T08:58:20.001183+00:00", "meta": {"OBJECT_NAME": "SWOT", "OBJECT_ID": "2022-173A", "EPOCH": "2025-12-22T03:20:08.676384", "MEAN_MOTION": 14.00168165, "ECCENTRICITY": 3.68e-05, "INCLINATION": 77.611, "RA_OF_ASC_NODE": 274.3021, "ARG_OF_PERICENTER": 85.6077, "MEAN_ANOMALY": 274.5117, "EPHEMERIS_TYPE": 0, "CLASSIFICATION_TYPE": "U", "NORAD_CAT_ID": 54754, "ELEMENT_SET_NO": 999, "REV_AT_EPOCH": 15437, "BSTAR": 1.3956e-05, "MEAN_MOTION_DOT": 1.8e-07, "MEAN_MOTION_DDOT": 0}, "tle": {"line1": "1 54754U 22173A   25356.13898931  .00000018  00000+0  13956-4 0  9999", "line2": "2 54754  77.6110 274.3021 0000368  85.6077 274.5117 14.00168165154377"}}, "geometry": {"type": "Point", "coordinates": [51.91437054028389, 71.83862877292793]}}, {"type": "Feature", "properties": {"norad_id": 57654, "name": "GAOFEN-12 04", "group": "resource", "lat": 11.37459657855463, "lon": 93.5884393414618, "alt_km": 631.6244226659492, "timestamp": "2025-12-22T08:58:20.001194+00:00", "meta": {"OBJECT_NAME": "GAOFEN-12 04", "OBJECT_ID": "2023-123A", "EPOCH": "2025-12-22T04:58:04.516608", "MEAN_MOTION": 14.7972609, "ECCENTRICITY": 0.0001214, "INCLINATION": 97.9128, "RA_OF_ASC_NODE": 271.8208, "ARG_OF_PERICENTER": 78.0116, "MEAN_ANOMALY": 282.1231, "EPHEMERIS_TYPE": 0, "CLASSIFICATION_TYPE": "U", "NORAD_CAT_ID": 57654, "ELEMENT_SET_NO": 999, "REV_AT_EPOCH": 12645, "BSTAR": 0.00017295, "MEAN_MOTION_DOT": 1.248e-05, "MEAN_MOTION_DDOT": 0}, "tle": {"line1": "1 57654U 23123A   25356.20699672  .00001248  00000+0  17295-3 0  9991", "line2": "2 57654  97.9128 271.8208 0001214  78.0116 282.1231 14.79726090126456"}}, "geometry": {"type": "Point", "coordinates": [93.5884393414618, 11.37459657855463]}}, {"type": "Feature", "properties": {"norad_id": 59065, "name": "PARS 1", "group": "resource", "lat": 9.798046048745649, "lon": 148.80956168117058, "alt_km": 449.26610325485854, "timestamp": "2025-12-22T08:58:20.001203+00:00", "meta": {"OBJECT_NAME": "PARS 1", "OBJECT_ID": "2024-039Q", "EPOCH": "2025-12-22T05:07:16.604832", "MEAN_MOTION": 15.41176294, "ECCENTRICITY": 0.0011888, "INCLINATION": 97.4648, "RA_OF_ASC_NODE": 327.3481, "ARG_OF_PERICENTER": 43.4352, "MEAN_ANOMALY": 316.7829, "EPHEMERIS_TYPE": 0, "CLASSIFICATION_TYPE": "U", "NORAD_CAT_ID": 59065, "ELEMENT_SET_NO": 999, "REV_AT_EPOCH": 10134, "BSTAR": 0.00031071, "MEAN_MOTION_DOT": 0.00012836, "MEAN_MOTION_DDOT": 0}, "tle": {"line1": "1 59065U 24039Q   25356.21338663  .00012836  00000+0  31071-3 0  9990", "line2": "2 59065  97.4648 327.3481 0011888  43.4352 316.7829 15.41176294101345"}}, "geometry": {"type": "Point", "coordinates": [148.80956168117058, 9.798046048745649]}}, {"type": "Feature", "properties": {"norad_id": 59371, "name": "RESURS-P 4", "group": "resource", "lat": 1.4119962475230061, "lon": -57.673105647787196, "alt_km": 472.038074882189, "timestamp": "2025-12-22T08:58:20.001214+00:00", "meta": {"OBJECT_NAME": "RESURS-P 4", "OBJECT_ID": "2024-061A", "EPOCH": "2025-12-22T04:15:49.396320", "MEAN_MOTION": 15.32155827, "ECCENTRICITY": 9.31e-05, "INCLINATION": 97.2562, "RA_OF_ASC_NODE": 302.3146, "ARG_OF_PERICENTER": 67.8625, "MEAN_ANOMALY": 292.2715, "EPHEMERIS_TYPE": 0, "CLASSIFICATION_TYPE": "U", "NORAD_CAT_ID": 59371, "ELEMENT_SET_NO": 999, "REV_AT_EPOCH": 9665, "BSTAR": 0.00013282, "MEAN_MOTION_DOT": 4.047e-05, "MEAN_MOTION_DDOT": 0}, "tle": {"line1": "1 59371U 24061A   25356.17765505  .00004047  00000+0  13282-3 0  9998", "line2": "2 59371  97.2562 302.3146 0000931  67.8625 292.2715 15.32155827 96657"}}, "geometry": {"type": "Point", "coordinates": [-57.673105647787196, 1.4119962475230061]}}, {"type": "Feature", "properties": {"norad_id": 59625, "name": "LEGION 1", "group": "resource", "lat": 46.11863662037863, "lon": 63.03492580054011, "alt_km": 513.9773546253355, "timestamp": "2025-12-22T08:58:20.001224+00:00", "meta": {"OBJECT_NAME": "LEGION 1", "OBJECT_ID": "2024-081A", "EPOCH": "2025-12-22T04:00:59.905728", "MEAN_MOTION": 15.16565978, "ECCENTRICITY": 0.0003629, "INCLINATION": 97.5203, "RA_OF_ASC_NODE": 70.7257, "ARG_OF_PERICENTER": 273.9445, "MEAN_ANOMALY": 86.1373, "EPHEMERIS_TYPE": 0, "CLASSIFICATION_TYPE": "U", "NORAD_CAT_ID": 59625, "ELEMENT_SET_NO": 999, "REV_AT_EPOCH": 9070, "BSTAR": 0.00027387, "MEAN_MOTION_DOT": 5.279e-05, "MEAN_MOTION_DDOT": 0}, "tle": {"line1": "1 59625U 24081A   25356.16736002  .00005279  00000+0  27387-3 0  9990", "line2": "2 59625  97.5203  70.7257 0003629 273.9445  86.1373 15.16565978 90704"}}, "geometry": {"type": "Point", "coordinates": [63.03492580054011, 46.11863662037863]}}, {"type": "Feature", "properties": {"norad_id": 59626, "name": "LEGION 2", "group": "resource", "lat": -46.435462328682696, "lon": -116.96599802774529, "alt_km": 519.4772781743541, "timestamp": "2025-12-22T08:58:20.001234+00:00", "meta": {"OBJECT_NAME": "LEGION 2", "OBJECT_ID": "2024-081B", "EPOCH": "2025-12-22T03:13:26.063616", "MEAN_MOTION": 15.16579271, "ECCENTRICITY": 0.0005659, "INCLINATION": 97.5206, "RA_OF_ASC_NODE": 70.7808, "ARG_OF_PERICENTER": 252.7778, "MEAN_ANOMALY": 107.2835, "EPHEMERIS_TYPE": 0, "CLASSIFICATION_TYPE": "U", "NORAD_CAT_ID": 59626, "ELEMENT_SET_NO": 999, "REV_AT_EPOCH": 9070, "BSTAR": 0.00024317, "MEAN_MOTION_DOT": 4.682e-05, "MEAN_MOTION_DDOT": 0}, "tle": {"line1": "1 59626U 24081B   25356.13432944  .00004682  00000+0  24317-3 0  9993", "line2": "2 59626  97.5206  70.7808 0005659 252.7778 107.2835 15.16579271 90708"}}, "geometry": {"type": "Point", "coordinates": [-116.96599802774529, -46.435462328682696]}}, {"type": "Feature", "properties": {"norad_id": 60182, "name": "ALOS-4 (DAICHI-4)", "group": "resource", "lat": 40.08441880651203, "lon": 84.35300102053904, "alt_km": 627.315956361952, "timestamp": "2025-12-22T08:58:20.001244+00:00", "meta": {"OBJECT_NAME": "ALOS-4 (DAICHI-4)", "OBJECT_ID": "2024-123A", "EPOCH": "2025-12-20T19:27:23.067360", "MEAN_MOTION": 14.79476697, "ECCENTRICITY": 0.00013881, "INCLINATION": 97.9224, "RA_OF_ASC_NODE": 89.5428, "ARG_OF_PERICENTER": 101.339, "MEAN_ANOMALY": 258.7977, "EPHEMERIS_TYPE": 0, "CLASSIFICATION_TYPE": "U", "NORAD_CAT_ID": 60182, "ELEMENT_SET_NO": 999, "REV_AT_EPOCH": 7950, "BSTAR": 0.00018374076, "MEAN_MOTION_DOT": 1.321e-05, "MEAN_MOTION_DDOT": 0}, "tle": {"line1": "1 60182U 24123A   25354.81068365  .00001321  00000+0  18374-3 0  9997", "line2": "2 60182  97.9224  89.5428 0001388 101.3390 258.7977 14.79476697 79501"}}, "geometry": {"type": "Point", "coordinates": [84.35300102053904, 40.08441880651203]}}, {"type": "Feature", "properties": {"norad_id": 60452, "name": "LEGION 3", "group": "resource", "lat": -15.207096926015707, "lon": -117.30095820460498, "alt_km": 519.7162157954817, "timestamp": "2025-12-22T08:58:20.001254+00:00", "meta": {"OBJECT_NAME": "LEGION 3", "OBJECT_ID": "2024-146A", "EPOCH": "2025-12-22T02:44:29.429664", "MEAN_MOTION": 15.15851241, "ECCENTRICITY": 0.0015694, "INCLINATION": 45.0011, "RA_OF_ASC_NODE": 259.8753, "ARG_OF_PERICENTER": 248.9219, "MEAN_ANOMALY": 110.9981, "EPHEMERIS_TYPE": 0, "CLASSIFICATION_TYPE": "U", "NORAD_CAT_ID": 60452, "ELEMENT_SET_NO": 999, "REV_AT_EPOCH": 7515, "BSTAR": 0.00024417, "MEAN_MOTION_DOT": 4.499e-05, "MEAN_MOTION_DDOT": 0}, "tle": {"line1": "1 60452U 24146A   25356.11422951  .00004499  00000+0  24417-3 0  9996", "line2": "2 60452  45.0011 259.8753 0015694 248.9219 110.9981 15.15851241 75159"}}, "geometry": {"type": "Point", "coordinates": [-117.30095820460498, -15.207096926015707]}}, {"type": "Feature", "properties": {"norad_id": 60453, "name": "LEGION 4", "group": "resource", "lat": -16.142980433792882, "lon": -26.552413904240744, "alt_km": 514.789683686774, "timestamp": "2025-12-22T08:58:20.001265+00:00", "meta": {"OBJECT_NAME": "LEGION 4", "OBJECT_ID": "2024-146B", "EPOCH": "2025-12-22T01:09:57.464064", "MEAN_MOTION": 15.15915063, "ECCENTRICITY": 0.0008504, "INCLINATION": 45.0392, "RA_OF_ASC_NODE": 352.0046, "ARG_OF_PERICENTER": 1.8461, "MEAN_ANOMALY": 358.2448, "EPHEMERIS_TYPE": 0, "CLASSIFICATION_TYPE": "U", "NORAD_CAT_ID": 60453, "ELEMENT_SET_NO": 999, "REV_AT_EPOCH": 7399, "BSTAR": 0.00028472, "MEAN_MOTION_DOT": 5.291e-05, "MEAN_MOTION_DDOT": 0}, "tle": {"line1": "1 60453U 24146B   25356.04858176  .00005291  00000+0  28472-3 0  9997", "line2": "2 60453  45.0392 352.0046 0008504   1.8461 358.2448 15.15915063 73998"}}, "geometry": {"type": "Point", "coordinates": [-26.552413904240744, -16.142980433792882]}}]}